{"type": "FeatureCollection", "features": [ {"type": "Feature", "properties": {"norad_id": 30081, "name": "FENGYUN 1C DEB", "group": "fengyun-1c-debris", "lat": 21.970133954745936, "lon": 157.73595691584063, "alt_km": 948.9770346877222, "timestamp": "2025-12-03T13:52:09.835333+00:00", "meta": {"OBJECT_NAME": "FENGYUN 1C DEB", "OBJECT_ID": "1999-025QJ", "EPOCH": "2025-12-02T23:38:20.579424", "MEAN_MOTION": 13.98257532, "ECCENTRICITY": 0.00762473, "INCLINATION": 98.9225, "RA_OF_ASC_NODE": 333.5258, "ARG_OF_PERICENTER": 6.0035, "MEAN_ANOMALY": 48.2271, "EPHEMERIS_TYPE": 0, "CLASSIFICATION_TYPE": "U", "NORAD_CAT_ID": 30081, "ELEMENT_SET_NO": 999, "REV_AT_EPOCH": 96218, "BSTAR": 0.00044129685, "MEAN_MOTION_DOT": 6.02e-06, "MEAN_MOTION_DDOT": 0}, "tle": {"line1": "1 30081U 99025QJ  25336.98496041  .00000602  00000+0  44130-3 0  9999", "line2": "2 30081  98.9225 333.5258 0076247   6.0035  48.2271 13.98257532962183"}}, "geometry": {"type": "Point", "coordinates": [157.73595691584063, 21.970133954745936]}}, {"type": "Feature", "properties": {"norad_id": 30082, "name": "FENGYUN 1C DEB", "group": "fengyun-1c-debris", "lat": 15.987341945836183, "lon": 86.41892391464334, "alt_km": 483.4507018012828, "timestamp": "2025-12-03T13:52:09.835343+00:00", "meta": {"OBJECT_NAME": "FENGYUN 1C DEB", "OBJECT_ID": "1999-025QK", "EPOCH": "2025-12-03T06:48:09.970272", "MEAN_MOTION": 15.14386425, "ECCENTRICITY": 0.0069567, "INCLINATION": 98.8172, "RA_OF_ASC_NODE": 263.5292, "ARG_OF_PERICENTER": 198.3181, "MEAN_ANOMALY": 161.5541, "EPHEMERIS_TYPE": 0, "CLASSIFICATION_TYPE": "U", "NORAD_CAT_ID": 30082, "ELEMENT_SET_NO": 999, "REV_AT_EPOCH": 1150, "BSTAR": 0.0016377142, "MEAN_MOTION_DOT": 0.00031956, "MEAN_MOTION_DDOT": 0}, "tle": {"line1": "1 30082U 99025QK  25337.28344873  .00031956  00000+0  16377-2 0  9996", "line2": "2 30082  98.8172 263.5292 0069567 198.3181 161.5541 15.14386425 11502"}}, "geometry": {"type": "Point", "coordinates": [86.41892391464334, 15.987341945836183]}}, {"type": "Feature", "properties": {"norad_id": 30086, "name": "FENGYUN 1C DEB", "group": "fengyun-1c-debris", "lat": 56.14786150114488, "lon": -155.03037038763398, "alt_km": 839.3692819728976, "timestamp": "2025-12-03T13:52:09.835353+00:00", "meta": {"OBJECT_NAME": "FENGYUN 1C DEB", "OBJECT_ID": "1999-025QP", "EPOCH": "2025-12-03T08:14:11.843232", "MEAN_MOTION": 14.03810383, "ECCENTRICITY": 0.00615462, "INCLINATION": 98.911, "RA_OF_ASC_NODE": 11.2128, "ARG_OF_PERICENTER": 160.2608, "MEAN_ANOMALY": 217.4472, "EPHEMERIS_TYPE": 0, "CLASSIFICATION_TYPE": "U", "NORAD_CAT_ID": 30086, "ELEMENT_SET_NO": 999, "REV_AT_EPOCH": 96564, "BSTAR": 0.00036782086, "MEAN_MOTION_DOT": 5.46e-06, "MEAN_MOTION_DDOT": 0}, "tle": {"line1": "1 30086U 99025QP  25337.34319263  .00000546  00000+0  36782-3 0  9996", "line2": "2 30086  98.9110  11.2128 0061546 160.2608 217.4472 14.03810383965645"}}, "geometry": {"type": "Point", "coordinates": [-155.03037038763398, 56.14786150114488]}}, {"type": "Feature", "properties": {"norad_id": 30087, "name": "FENGYUN 1C DEB", "group": "fengyun-1c-debris", "lat": 55.970802009779135, "lon": -2.5381450968009287, "alt_km": 768.4825882493205, "timestamp": "2025-12-03T13:52:09.835364+00:00", "meta": {"OBJECT_NAME": "FENGYUN 1C DEB", "OBJECT_ID": "1999-025QQ", "EPOCH": "2025-12-03T02:00:42.568992", "MEAN_MOTION": 14.356703, "ECCENTRICITY": 0.02300558, "INCLINATION": 98.3814, "RA_OF_ASC_NODE": 9.5925, "ARG_OF_PERICENTER": 150.1034, "MEAN_ANOMALY": 237.4302, "EPHEMERIS_TYPE": 0, "CLASSIFICATION_TYPE": "U", "NORAD_CAT_ID": 30087, "ELEMENT_SET_NO": 999, "REV_AT_EPOCH": 98557, "BSTAR": 0.00035894042, "MEAN_MOTION_DOT": 1.351e-05, "MEAN_MOTION_DDOT": 0}, "tle": {"line1": "1 30087U 99025QQ  25337.08382603  .00001351  00000+0  35894-3 0  9994", "line2": "2 30087  98.3814   9.5925 0230055 150.1034 237.4302 14.35670300985576"}}, "geometry": {"type": "Point", "coordinates": [-2.5381450968009287, 55.970802009779135]}}, {"type": "Feature", "properties": {"norad_id": 30088, "name": "FENGYUN 1C DEB", "group": "fengyun-1c-debris", "lat": -47.17513944556483, "lon": -28.744794079668182, "alt_km": 663.4784684145789, "timestamp": "2025-12-03T13:52:09.835374+00:00", "meta": {"OBJECT_NAME": "FENGYUN 1C DEB", "OBJECT_ID": "1999-025QR", "EPOCH": "2025-12-02T23:19:50.253888", "MEAN_MOTION": 14.35862832, "ECCENTRICITY": 0.02008992, "INCLINATION": 98.3532, "RA_OF_ASC_NODE": 321.5463, "ARG_OF_PERICENTER": 276.8655, "MEAN_ANOMALY": 144.4582, "EPHEMERIS_TYPE": 0, "CLASSIFICATION_TYPE": "U", "NORAD_CAT_ID": 30088, "ELEMENT_SET_NO": 999, "REV_AT_EPOCH": 98532, "BSTAR": 0.00059970012, "MEAN_MOTION_DOT": 2.136e-05, "MEAN_MOTION_DDOT": 0}, "tle": {"line1": "1 30088U 99025QR  25336.97210942  .00002136  00000+0  59970-3 0  9991", "line2": "2 30088  98.3532 321.5463 0200899 276.8655 144.4582 14.35862832985329"}}, "geometry": {"type": "Point", "coordinates": [-28.744794079668182, -47.17513944556483]}}, {"type": "Feature", "properties": {"norad_id": 30089, "name": "FENGYUN 1C DEB", "group": "fengyun-1c-debris", "lat": 13.961363235454476, "lon": 64.99210819342488, "alt_km": 774.5310585724283, "timestamp": "2025-12-03T13:52:09.835385+00:00", "meta": {"OBJECT_NAME": "FENGYUN 1C DEB", "OBJECT_ID": "1999-025QS", "EPOCH": "2025-12-03T05:18:47.988864", "MEAN_MOTION": 14.30284456, "ECCENTRICITY": 0.00730533, "INCLINATION": 98.9029, "RA_OF_ASC_NODE": 242.3941, "ARG_OF_PERICENTER": 238.0337, "MEAN_ANOMALY": 253.9065, "EPHEMERIS_TYPE": 0, "CLASSIFICATION_TYPE": "U", "NORAD_CAT_ID": 30089, "ELEMENT_SET_NO": 999, "REV_AT_EPOCH": 98343, "BSTAR": 0.00038802019, "MEAN_MOTION_DOT": 9.89e-06, "MEAN_MOTION_DDOT": 0}, "tle": {"line1": "1 30089U 99025QS  25337.22138876  .00000989  00000+0  38802-3 0  9991", "line2": "2 30089  98.9029 242.3941 0073053 238.0337 253.9065 14.30284456983432"}}, "geometry": {"type": "Point", "coordinates": [64.99210819342488, 13.961363235454476]}}, {"type": "Feature", "properties": {"norad_id": 30090, "name": "FENGYUN 1C DEB", "group": "fengyun-1c-debris", "lat": 74.76142249672517, "lon": 7.440766588668572, "alt_km": 753.99233219708, "timestamp": "2025-12-03T13:52:09.835395+00:00", "meta": {"OBJECT_NAME": "FENGYUN 1C DEB", "OBJECT_ID": "1999-025QT", "EPOCH": "2025-12-03T05:49:47.899200", "MEAN_MOTION": 14.29002111, "ECCENTRICITY": 0.00581649, "INCLINATION": 99.4092, "RA_OF_ASC_NODE": 149.584, "ARG_OF_PERICENTER": 138.8278, "MEAN_ANOMALY": 41.2798, "EPHEMERIS_TYPE": 0, "CLASSIFICATION_TYPE": "U", "NORAD_CAT_ID": 30090, "ELEMENT_SET_NO": 999, "REV_AT_EPOCH": 98134, "BSTAR": 0.00044341772, "MEAN_MOTION_DOT": 1.092e-05, "MEAN_MOTION_DDOT": 0}, "tle": {"line1": "1 30090U 99025QT  25337.24291550  .00001092  00000+0  44342-3 0  9996", "line2": "2 30090  99.4092 149.5840 0058164 138.8278  41.2798 14.29002111981346"}}, "geometry": {"type": "Point", "coordinates": [7.440766588668572, 74.76142249672517]}}, {"type": "Feature", "properties": {"norad_id": 30092, "name": "FENGYUN 1C DEB", "group": "fengyun-1c-debris", "lat": 81.07007369675013, "lon": 67.25046379148205, "alt_km": 812.5183270048556, "timestamp": "2025-12-03T13:52:09.835406+00:00", "meta": {"OBJECT_NAME": "FENGYUN 1C DEB", "OBJECT_ID": "1999-025QV", "EPOCH": "2025-12-02T10:53:41.466624", "MEAN_MOTION": 14.39078952, "ECCENTRICITY": 0.00826469, "INCLINATION": 98.9234, "RA_OF_ASC_NODE": 155.2931, "ARG_OF_PERICENTER": 281.0386, "MEAN_ANOMALY": 109.2428, "EPHEMERIS_TYPE": 0, "CLASSIFICATION_TYPE": "U", "NORAD_CAT_ID": 30092, "ELEMENT_SET_NO": 999, "REV_AT_EPOCH": 98601, "BSTAR": 0.0006882869, "MEAN_MOTION_DOT": 2.165e-05, "MEAN_MOTION_DDOT": 0}, "tle": {"line1": "1 30092U 99025QV  25336.45395216  .00002165  00000+0  68829-3 0  9992", "line2": "2 30092  98.9234 155.2931 0082646 281.0386 109.2428 14.39078952986019"}}, "geometry": {"type": "Point", "coordinates": [67.25046379148205, 81.07007369675013]}}, {"type": "Feature", "properties": {"norad_id": 30093, "name": "FENGYUN 1C DEB", "group": "fengyun-1c-debris", "lat": 25.18733777989169, "lon": 35.978406356892926, "alt_km": 789.2751745913583, "timestamp": "2025-12-03T13:52:09.835416+00:00", "meta": {"OBJECT_NAME": "FENGYUN 1C DEB", "OBJECT_ID": "1999-025QW", "EPOCH": "2025-12-03T02:17:57.054336", "MEAN_MOTION": 14.4359079, "ECCENTRICITY": 0.0070725, "INCLINATION": 98.8685, "RA_OF_ASC_NODE": 211.2655, "ARG_OF_PERICENTER": 6.1004, "MEAN_ANOMALY": 163.9066, "EPHEMERIS_TYPE": 0, "CLASSIFICATION_TYPE": "U", "NORAD_CAT_ID": 30093, "ELEMENT_SET_NO": 999, "REV_AT_EPOCH": 98664, "BSTAR": 0.0012634583, "MEAN_MOTION_DOT": 4.367e-05, "MEAN_MOTION_DDOT": 0}, "tle": {"line1": "1 30093U 99025QW  25337.09579924  .00004367  00000+0  12635-2 0  9993", "line2": "2 30093  98.8685 211.2655 0070725   6.1004 163.9066 14.43590790986641"}}, "geometry": {"type": "Point", "coordinates": [35.978406356892926, 25.18733777989169]}}, {"type": "Feature", "properties": {"norad_id": 30095, "name": "FENGYUN 1C DEB", "group": "fengyun-1c-debris", "lat": 74.21358036386071, "lon": 112.38909231514671, "alt_km": 640.4001113059667, "timestamp": "2025-12-03T13:52:09.835427+00:00", "meta": {"OBJECT_NAME": "FENGYUN 1C DEB", "OBJECT_ID": "1999-025QY", "EPOCH": "2025-12-03T05:18:34.926048", "MEAN_MOTION": 14.81253319, "ECCENTRICITY": 0.0168446, "INCLINATION": 99.2198, "RA_OF_ASC_NODE": 256.9123, "ARG_OF_PERICENTER": 2.1564, "MEAN_ANOMALY": 358.0334, "EPHEMERIS_TYPE": 0, "CLASSIFICATION_TYPE": "U", "NORAD_CAT_ID": 30095, "ELEMENT_SET_NO": 999, "REV_AT_EPOCH": 99194, "BSTAR": 0.0029062828, "MEAN_MOTION_DOT": 0.00028986, "MEAN_MOTION_DDOT": 0}, "tle": {"line1": "1 30095U 99025QY  25337.22123757  .00028986  00000+0  29063-2 0  9995", "line2": "2 30095  99.2198 256.9123 0168446   2.1564 358.0334 14.81253319991947"}}, "geometry": {"type": "Point", "coordinates": [112.38909231514671, 74.21358036386071]}}]}